{
  "links" : {
    "next" : "https://api.nasa.gov/neo/rest/v1/feed?start_date=2006-02-23&end_date=2006-02-23&detailed=true&api_key=t0TVs3DtDT2H8Oy2Zy8m2eVrNsAVKAexjcZXUckd",
    "prev" : "https://api.nasa.gov/neo/rest/v1/feed?start_date=2006-02-21&end_date=2006-02-21&detailed=true&api_key=t0TVs3DtDT2H8Oy2Zy8m2eVrNsAVKAexjcZXUckd",
    "self" : "https://api.nasa.gov/neo/rest/v1/feed?start_date=2006-02-22&end_date=2006-02-22&detailed=true&api_key=t0TVs3DtDT2H8Oy2Zy8m2eVrNsAVKAexjcZXUckd"
  },
  "element_count" : 3,
  "near_earth_objects" : {
    "2006-02-22" : [ {
      "links" : {
        "self" : "https://api.nasa.gov/neo/rest/v1/neo/2040267?api_key=t0TVs3DtDT2H8Oy2Zy8m2eVrNsAVKAexjcZXUckd"
      },
      "neo_reference_id" : "2040267",
      "name" : "40267 (1999 GJ4)",
      "nasa_jpl_url" : "http://ssd.jpl.nasa.gov/sbdb.cgi?sstr=2040267",
      "absolute_magnitude_h" : 15.5,
      "estimated_diameter" : {
        "kilometers" : {
          "estimated_diameter_min" : 2.1113244479,
          "estimated_diameter_max" : 4.7210649881
        },
        "meters" : {
          "estimated_diameter_min" : 2111.3244478971,
          "estimated_diameter_max" : 4721.0649880552
        },
        "miles" : {
          "estimated_diameter_min" : 1.3119157835,
          "estimated_diameter_max" : 2.9335328727
        },
        "feet" : {
          "estimated_diameter_min" : 6926.9177016389,
          "estimated_diameter_max" : 15489.0588554111
        }
      },
      "is_potentially_hazardous_asteroid" : false,
      "close_approach_data" : [ {
        "close_approach_date" : "2006-02-22",
        "epoch_date_close_approach" : 1140595200000,
        "relative_velocity" : {
          "kilometers_per_second" : "44.2446890963",
          "kilometers_per_hour" : "159280.8807465418",
          "miles_per_hour" : "98970.9450394276"
        },
        "miss_distance" : {
          "astronomical" : "0.4600316937",
          "lunar" : "178.952331543",
          "kilometers" : "68819760",
          "miles" : "42762616"
        },
        "orbiting_body" : "Earth"
      } ],
      "orbital_data" : {
        "orbit_id" : "324",
        "orbit_determination_date" : "2017-05-25 06:20:40",
        "orbit_uncertainty" : "0",
        "minimum_orbit_intersection" : ".157086",
        "jupiter_tisserand_invariant" : "4.379",
        "epoch_osculation" : "2458000.5",
        "eccentricity" : ".808400911830118",
        "semi_major_axis" : "1.338718093493013",
        "inclination" : "34.50233782692475",
        "ascending_node_longitude" : "148.2527883782019",
        "orbital_period" : "565.7598535742343",
        "perihelion_distance" : ".2564971660297841",
        "perihelion_argument" : "211.9164032708541",
        "aphelion_distance" : "2.420939020956241",
        "perihelion_time" : "2458280.000843714812",
        "mean_anomaly" : "182.1501523983093",
        "mean_motion" : ".6363123818801749",
        "equinox" : "J2000"
      }
    }, {
      "links" : {
        "self" : "https://api.nasa.gov/neo/rest/v1/neo/3179365?api_key=t0TVs3DtDT2H8Oy2Zy8m2eVrNsAVKAexjcZXUckd"
      },
      "neo_reference_id" : "3179365",
      "name" : "(2004 HL)",
      "nasa_jpl_url" : "http://ssd.jpl.nasa.gov/sbdb.cgi?sstr=3179365",
      "absolute_magnitude_h" : 26.5,
      "estimated_diameter" : {
        "kilometers" : {
          "estimated_diameter_min" : 0.0133215567,
          "estimated_diameter_max" : 0.0297879063
        },
        "meters" : {
          "estimated_diameter_min" : 13.3215566698,
          "estimated_diameter_max" : 29.7879062798
        },
        "miles" : {
          "estimated_diameter_min" : 0.008277629,
          "estimated_diameter_max" : 0.0185093411
        },
        "feet" : {
          "estimated_diameter_min" : 43.7058959846,
          "estimated_diameter_max" : 97.7293544391
        }
      },
      "is_potentially_hazardous_asteroid" : false,
      "close_approach_data" : [ {
        "close_approach_date" : "2006-02-22",
        "epoch_date_close_approach" : 1140595200000,
        "relative_velocity" : {
          "kilometers_per_second" : "15.4325418683",
          "kilometers_per_hour" : "55557.1507260103",
          "miles_per_hour" : "34521.0529052812"
        },
        "miss_distance" : {
          "astronomical" : "0.3547346829",
          "lunar" : "137.9917907715",
          "kilometers" : "53067556",
          "miles" : "32974650"
        },
        "orbiting_body" : "Earth"
      } ],
      "orbital_data" : {
        "orbit_id" : "6",
        "orbit_determination_date" : "2017-04-06 09:12:54",
        "orbit_uncertainty" : "7",
        "minimum_orbit_intersection" : ".0154395",
        "jupiter_tisserand_invariant" : "4.372",
        "epoch_osculation" : "2458000.5",
        "eccentricity" : ".3462357003925961",
        "semi_major_axis" : "1.553726223391043",
        "inclination" : "3.401643574138871",
        "ascending_node_longitude" : "29.33152675766626",
        "orbital_period" : "707.3920430470624",
        "perihelion_distance" : "1.015770736216902",
        "perihelion_argument" : "170.4159955001357",
        "aphelion_distance" : "2.091681710565184",
        "perihelion_time" : "2458057.656108050727",
        "mean_anomaly" : "330.9125949316159",
        "mean_motion" : ".5089115767394198",
        "equinox" : "J2000"
      }
    }, {
      "links" : {
        "self" : "https://api.nasa.gov/neo/rest/v1/neo/3324251?api_key=t0TVs3DtDT2H8Oy2Zy8m2eVrNsAVKAexjcZXUckd"
      },
      "neo_reference_id" : "3324251",
      "name" : "(2006 DQ14)",
      "nasa_jpl_url" : "http://ssd.jpl.nasa.gov/sbdb.cgi?sstr=3324251",
      "absolute_magnitude_h" : 27.1,
      "estimated_diameter" : {
        "kilometers" : {
          "estimated_diameter_min" : 0.0101054342,
          "estimated_diameter_max" : 0.0225964377
        },
        "meters" : {
          "estimated_diameter_min" : 10.1054341542,
          "estimated_diameter_max" : 22.5964377109
        },
        "miles" : {
          "estimated_diameter_min" : 0.0062792237,
          "estimated_diameter_max" : 0.0140407711
        },
        "feet" : {
          "estimated_diameter_min" : 33.1543125905,
          "estimated_diameter_max" : 74.1352966996
        }
      },
      "is_potentially_hazardous_asteroid" : false,
      "close_approach_data" : [ {
        "close_approach_date" : "2006-02-22",
        "epoch_date_close_approach" : 1140595200000,
        "relative_velocity" : {
          "kilometers_per_second" : "3.5231372074",
          "kilometers_per_hour" : "12683.29394674",
          "miles_per_hour" : "7880.9056192952"
        },
        "miss_distance" : {
          "astronomical" : "0.0134373829",
          "lunar" : "5.2271418571",
          "kilometers" : "2010203.875",
          "miles" : "1249082.75"
        },
        "orbiting_body" : "Earth"
      } ],
      "orbital_data" : {
        "orbit_id" : "8",
        "orbit_determination_date" : "2017-04-06 09:09:03",
        "orbit_uncertainty" : "6",
        "minimum_orbit_intersection" : ".0155717",
        "jupiter_tisserand_invariant" : "5.946",
        "epoch_osculation" : "2458000.5",
        "eccentricity" : ".05292852502317352",
        "semi_major_axis" : "1.02765855936055",
        "inclination" : "6.293603773972421",
        "ascending_node_longitude" : "155.3228587404231",
        "orbital_period" : "380.514922164056",
        "perihelion_distance" : ".9732661075861566",
        "perihelion_argument" : "292.4831011837819",
        "aphelion_distance" : "1.082051011134943",
        "perihelion_time" : "2457911.200766735269",
        "mean_anomaly" : "84.48479179863241",
        "mean_motion" : ".9460864187733189",
        "equinox" : "J2000"
      }
    } ]
  }
}